{
  "type": "FeatureCollection",
  "features": [
    {
      "type": "Feature",
      "properties": {
        "norad_id": 55973,
        "name": "TIANMU-1 03",
        "group": "weather",
        "lat": -5.222891134722914,
        "lon": -25.908094652712368,
        "alt_km": 448.86627277390926,
        "timestamp": "2025-12-17T23:38:06.507567+00:00",
        "meta_object_name": "TIANMU-1 03",
        "meta_object_id": "2023-039A",
        "meta_epoch": "2025-12-17T15:02:33.582048",
        "meta_mean_motion": 15.41064792,
        "meta_eccentricity": 0.00041884,
        "meta_inclination": 97.5101,
        "meta_ra_of_asc_node": 154.4149,
        "meta_arg_of_pericenter": 47.454,
        "meta_mean_anomaly": 312.706,
        "meta_ephemeris_type": 0,
        "meta_classification_type": "U",
        "meta_norad_cat_id": 55973,
        "meta_element_set_no": 999,
        "meta_rev_at_epoch": 15281,
        "meta_bstar": 0.00029509846,
        "meta_mean_motion_dot": 0.00012114,
        "meta_mean_motion_ddot": 0,
        "tle_line1": "1 55973U 23039A   25351.62677757  .00012114  00000+0  29510-3 0  9997",
        "tle_line2": "2 55973  97.5101 154.4149 0004188  47.4540 312.7060 15.41064792152812"
      },
      "geometry": {
        "type": "Point",
        "coordinates": [
          -25.908094652712368,
          -5.222891134722914
        ]
      }
    },
    {
      "type": "Feature",
      "properties": {
        "norad_id": 55974,
        "name": "TIANMU-1 04",
        "group": "weather",
        "lat": -53.99241417660682,
        "lon": 164.4209077839132,
        "alt_km": 449.2692642816037,
        "timestamp": "2025-12-17T23:38:06.507579+00:00",
        "meta_object_name": "TIANMU-1 04",
        "meta_object_id": "2023-039B",
        "meta_epoch": "2025-12-17T14:31:25.437792",
        "meta_mean_motion": 15.41403645,
        "meta_eccentricity": 0.00048288,
        "meta_inclination": 97.5033,
        "meta_ra_of_asc_node": 153.5817,
        "meta_arg_of_pericenter": 41.5259,
        "meta_mean_anomaly": 318.6354,
        "meta_ephemeris_type": 0,
        "meta_classification_type": "U",
        "meta_norad_cat_id": 55974,
        "meta_element_set_no": 999,
        "meta_rev_at_epoch": 15281,
        "meta_bstar": 0.00030612972,
        "meta_mean_motion_dot": 0.00012715,
        "meta_mean_motion_ddot": 0,
        "tle_line1": "1 55974U 23039B   25351.60515553  .00012715  00000+0  30613-3 0  9994",
        "tle_line2": "2 55974  97.5033 153.5817 0004828  41.5259 318.6354 15.41403645152817"
      },
      "geometry": {
        "type": "Point",
        "coordinates": [
          164.4209077839132,
          -53.99241417660682
        ]
      }
    },
    {
      "type": "Feature",
      "properties": {
        "norad_id": 55975,
        "name": "TIANMU-1 05",
        "group": "weather",
        "lat": -29.70782106938925,
        "lon": 158.78004621634688,
        "alt_km": 449.2843467889461,
        "timestamp": "2025-12-17T23:38:06.507590+00:00",
        "meta_object_name": "TIANMU-1 05",
        "meta_object_id": "2023-039C",
        "meta_epoch": "2025-12-17T14:24:52.219296",
        "meta_mean_motion": 15.41021149,
        "meta_eccentricity": 0.00042263,
        "meta_inclination": 97.5079,
        "meta_ra_of_asc_node": 154.0697,
        "meta_arg_of_pericenter": 65.2236,
        "meta_mean_anomaly": 294.9449,
        "meta_ephemeris_type": 0,
        "meta_classification_type": "U",
        "meta_norad_cat_id": 55975,
        "meta_element_set_no": 999,
        "meta_rev_at_epoch": 15279,
        "meta_bstar": 0.00029983339,
        "meta_mean_motion_dot": 0.00012292,
        "meta_mean_motion_ddot": 0,
        "tle_line1": "1 55975U 23039C   25351.60060439  .00012292  00000+0  29983-3 0  9991",
        "tle_line2": "2 55975  97.5079 154.0697 0004226  65.2236 294.9449 15.41021149152793"
      },
      "geometry": {
        "type": "Point",
        "coordinates": [
          158.78004621634688,
          -29.70782106938925
        ]
      }
    },
    {
      "type": "Feature",
      "properties": {
        "norad_id": 55976,
        "name": "TIANMU-1 06",
        "group": "weather",
        "lat": -64.65114204263159,
        "lon": 171.10059245196595,
        "alt_km": 450.7469972605131,
        "timestamp": "2025-12-17T23:38:06.507600+00:00",
        "meta_object_name": "TIANMU-1 06",
        "meta_object_id": "2023-039D",
        "meta_epoch": "2025-12-17T14:34:19.214976",
        "meta_mean_motion": 15.41456132,
        "meta_eccentricity": 0.00045184,
        "meta_inclination": 97.509,
        "meta_ra_of_asc_node": 154.5455,
        "meta_arg_of_pericenter": 59.5968,
        "meta_mean_anomaly": 300.5724,
        "meta_ephemeris_type": 0,
        "meta_classification_type": "U",
        "meta_norad_cat_id": 55976,
        "meta_element_set_no": 999,
        "meta_rev_at_epoch": 15281,
        "meta_bstar": 0.00031454569,
        "meta_mean_motion_dot": 0.00013089,
        "meta_mean_motion_ddot": 0,
        "tle_line1": "1 55976U 23039D   25351.60716684  .00013089  00000+0  31455-3 0  9994",
        "tle_line2": "2 55976  97.5090 154.5455 0004518  59.5968 300.5724 15.41456132152813"
      },
      "geometry": {
        "type": "Point",
        "coordinates": [
          171.10059245196595,
          -64.65114204263159
        ]
      }
    },
    {
      "type": "Feature",
      "properties": {
        "norad_id": 56232,
        "name": "FENGYUN 3G",
        "group": "weather",
        "lat": -46.28622964657044,
        "lon": 138.91699076464397,
        "alt_km": 412.3548371377192,
        "timestamp": "2025-12-17T23:38:06.507614+00:00",
        "meta_object_name": "FENGYUN 3G",
        "meta_object_id": "2023-055A",
        "meta_epoch": "2025-12-17T14:40:45.859296",
        "meta_mean_motion": 15.53933248,
        "meta_eccentricity": 0.00093757,
        "meta_inclination": 49.9922,
        "meta_ra_of_asc_node": 202.3087,
        "meta_arg_of_pericenter": 170.689,
        "meta_mean_anomaly": 189.4253,
        "meta_ephemeris_type": 0,
        "meta_classification_type": "U",
        "meta_norad_cat_id": 56232,
        "meta_element_set_no": 999,
        "meta_rev_at_epoch": 15178,
        "meta_bstar": 0.00038187201,
        "meta_mean_motion_dot": 0.0002478,
        "meta_mean_motion_ddot": 0,
        "tle_line1": "1 56232U 23055A   25351.61164189  .00024780  00000+0  38187-3 0  9995",
        "tle_line2": "2 56232  49.9922 202.3087 0009375 170.6890 189.4253 15.53933248151789"
      },
      "geometry": {
        "type": "Point",
        "coordinates": [
          138.91699076464397,
          -46.28622964657044
        ]
      }
    },
    {
      "type": "Feature",
      "properties": {
        "norad_id": 57166,
        "name": "METEOR-M2 3",
        "group": "weather",
        "lat": 58.05268220175132,
        "lon": -120.45963860822062,
        "alt_km": 807.7231407655145,
        "timestamp": "2025-12-17T23:38:06.507625+00:00",
        "meta_object_name": "METEOR-M2 3",
        "meta_object_id": "2023-091A",
        "meta_epoch": "2025-12-17T14:38:17.850048",
        "meta_mean_motion": 14.24026622,
        "meta_eccentricity": 0.0003627,
        "meta_inclination": 98.6374,
        "meta_ra_of_asc_node": 45.0641,
        "meta_arg_of_pericenter": 354.5136,
        "meta_mean_anomaly": 5.6003,
        "meta_ephemeris_type": 0,
        "meta_classification_type": "U",
        "meta_norad_cat_id": 57166,
        "meta_element_set_no": 999,
        "meta_rev_at_epoch": 12867,
        "meta_bstar": 1.9555037e-05,
        "meta_mean_motion_dot": 1e-08,
        "meta_mean_motion_ddot": 0,
        "tle_line1": "1 57166U 23091A   25351.60992882  .00000001  00000+0  19555-4 0  9999",
        "tle_line2": "2 57166  98.6374  45.0641 0003627 354.5136   5.6003 14.24026622128676"
      },
      "geometry": {
        "type": "Point",
        "coordinates": [
          -120.45963860822062,
          58.05268220175132
        ]
      }
    },
    {
      "type": "Feature",
      "properties": {
        "norad_id": 57399,
        "name": "TIANMU-1 07",
        "group": "weather",
        "lat": 68.85485509672496,
        "lon": -118.95889022336034,
        "alt_km": 471.9135312191147,
        "timestamp": "2025-12-17T23:38:06.507635+00:00",
        "meta_object_name": "TIANMU-1 07",
        "meta_object_id": "2023-101A",
        "meta_epoch": "2025-12-17T15:17:55.603968",
        "meta_mean_motion": 15.28141323,
        "meta_eccentricity": 0.00054318,
        "meta_inclination": 97.2876,
        "meta_ra_of_asc_node": 41.3796,
        "meta_arg_of_pericenter": 69.3556,
        "meta_mean_anomaly": 290.8266,
        "meta_ephemeris_type": 0,
        "meta_classification_type": "U",
        "meta_norad_cat_id": 57399,
        "meta_element_set_no": 999,
        "meta_rev_at_epoch": 13390,
        "meta_bstar": 0.00022489681,
        "meta_mean_motion_dot": 6.099e-05,
        "meta_mean_motion_ddot": 0,
        "tle_line1": "1 57399U 23101A   25351.63744912  .00006099  00000+0  22490-3 0  9995",
        "tle_line2": "2 57399  97.2876  41.3796 0005431  69.3556 290.8266 15.28141323133900"
      },
      "geometry": {
        "type": "Point",
        "coordinates": [
          -118.95889022336034,
          68.85485509672496
        ]
      }
    }
  ]
}